OBJECT_NAME,OBJECT_ID,EPOCH,MEAN_MOTION,ECCENTRICITY,INCLINATION,RA_OF_ASC_NODE,ARG_OF_PERICENTER,MEAN_ANOMALY,EPHEMERIS_TYPE,CLASSIFICATION_TYPE,NORAD_CAT_ID,ELEMENT_SET_NO,REV_AT_EPOCH,BSTAR,MEAN_MOTION_DOT,MEAN_MOTION_DDOT
2022-023F,2022-023F,2026-07-11T23:32:38.721408,15.17936854,.01328197,63.4438,189.1954,341.6338,18.0001,0,U,51951,999,24147,.2171476E-3,.5321E-4,0
MERIDIAN 10,2022-030A,2026-07-11T09:28:40.807200,2.00609904,.67906513,62.6800,138.1786,272.8436,17.6127,0,U,52145,999,3151,0,.163E-5,0
OMNI-L1,2022-033A,2026-07-11T19:25:51.767616,14.82837689,.00050372,97.8392,271.5092,188.4691,171.6439,0,U,52157,999,23110,.13407238E-3,.1033E-4,0
ENMAP,2022-033C,2026-07-11T22:14:43.264896,14.74939020,.00013493,97.9791,274.8246,79.0528,281.0833,0,U,52159,999,23030,.32474693E-4,.168E-5,0
ARCSAT-1,2022-033E,2026-07-11T17:23:51.064512,15.54227415,.00063266,97.2758,285.3718,107.0335,253.1612,0,U,52161,999,23951,.16488512E-3,.10657E-3,0
GLOBAL-18,2022-034B,2026-07-10T06:12:31.501152,15.47079635,.00043087,52.9800,146.3065,11.3992,348.7110,0,U,52196,999,24053,.30601834E-3,.15344E-3,0
GAOFEN-3 03,2022-035A,2026-07-11T23:56:33.444384,14.42217438,.00017303,98.4069,201.2176,91.6323,268.5065,0,U,52200,999,22442,-.36406882E-4,-.163E-5,0
DAQI-1,2022-039A,2026-07-11T23:51:22.089024,14.57691459,.0003727,98.1477,131.3335,155.9631,204.1743,0,U,52257,999,22555,.29055115E-4,.88E-6,0
BRO-6,2022-047AE,2026-07-11T21:43:45.844608,15.52379248,.00029565,97.3395,284.4653,329.8377,30.2705,0,U,52422,999,23498,.46210675E-3,.28144E-3,0
JILIN-1 GAOFEN 3D27,2022-048B,2026-07-11T22:35:08.868768,15.82206266,.00050102,97.5730,309.2487,252.7834,107.2886,0,U,52444,999,23338,.6096689E-3,.12625E-2,0
JILIN-1 GAOFEN 3D28,2022-048C,2026-07-11T22:40:22.474848,15.86942993,.00047809,97.5669,309.5313,248.9727,111.1033,0,U,52445,999,23344,.64895422E-3,.169068E-2,0
VIGORIDE-3,2022-057AE,2026-07-11T20:23:01.538304,15.27528680,.00091379,97.6629,333.4851,45.3451,314.8531,0,U,52760,999,22892,.12352922E-3,.325E-4,0
ION SCV-006,2022-057AF,2026-07-11T09:05:34.215072,15.45862424,.00171518,97.6117,342.1745,30.9880,329.2377,0,U,52761,999,22985,.16296469E-3,.7857E-4,0
SHERPA-AC1,2022-057AH,2026-07-11T21:08:01.020768,15.36602059,.0007516,97.6707,343.1458,15.4262,344.7209,0,U,52763,999,22949,.12931217E-3,.4536E-4,0
OMNI-L2,2022-057AR,2026-07-11T15:23:41.978976,14.81432788,.00054018,97.4704,253.3558,234.4102,125.6609,0,U,52771,999,22401,.95316646E-4,.699E-5,0
STEP CUBE LAB-II,2022-065D,2026-07-11T21:19:56.513856,14.63340514,.00075773,98.2252,336.7191,314.6815,45.3769,0,U,52897,999,21511,.10745006E-3,.507E-5,0
RANDEV,2022-065E,2026-07-11T21:12:04.423392,14.63729240,.00069361,98.2240,337.0762,315.3985,44.6658,0,U,52898,999,21486,.11061574E-3,.528E-5,0
SNUGLITE-II,2022-065F,2026-07-11T15:06:40.003488,14.64390506,.00063995,98.2230,337.4211,313.7213,46.3459,0,U,52899,999,21457,.99611367E-4,.478E-5,0
MIMAN,2022-065G,2026-07-11T14:53:46.482432,14.61869477,.00065908,98.2291,334.9841,316.6291,43.4391,0,U,52900,999,21401,.63494194E-4,.27E-5,0
STARLINK-4362,2022-077A,2026-07-11T10:57:18.527616,15.05658795,.00012446,97.2839,10.1137,94.0074,266.1296,0,U,53043,999,21953,.50516755E-4,.673E-5,0
LARES-2,2022-080A,2026-07-11T06:32:52.952640,6.38965058,.00051703,70.1562,297.0691,331.4390,28.5953,0,U,53105,999,9320,0,-.16E-6,0
GREENCUBE (IO-117),2022-080E,2026-07-11T07:23:26.297664,6.42583311,.0009046,70.1420,289.8580,284.3679,75.5976,0,U,53109,999,9361,0,-.3E-7,0
STARLINK-4410,2022-084R,2026-07-11T22:00:03.000096,15.44599321,.00017163,97.5999,254.8486,77.5670,113.3601,0,U,53204,999,580,.9269142E-3,.43202E-3,0
COSMOS 2558,2022-089A,2026-07-11T19:34:56.598240,15.80949922,.0003714,97.2237,297.9839,233.2836,126.8092,0,U,53323,999,22171,.52388E-3,.102043E-2,0
TECMS,2022-090A,2026-07-11T22:54:14.537088,15.21220180,.00055624,97.3132,260.3616,93.1438,267.0435,0,U,53346,999,21857,.98753703E-4,.2137E-4,0
DONGPO 02,2022-098J,2026-07-11T23:34:33.167712,15.80433173,.00043895,97.5545,326.4330,223.7065,136.3855,0,U,53452,999,21870,.57258049E-3,.109055E-2,0
DONGPO 01,2022-098K,2026-07-11T22:46:17.825088,15.77506432,.00028516,97.5606,326.8473,213.1089,146.9998,0,U,53453,999,21865,.49839597E-3,.82945E-3,0
STARLINK-4400,2022-099D,2026-07-11T20:01:36.732288,15.05654599,.00017061,97.2837,310.5521,128.1489,231.9892,0,U,53468,999,21465,-.9811E-7,-.58E-6,0
