2022-023F               
1 51951U 22023F   26192.98100372  .00005321  00000+0  21715-3 0  9999
2 51951  63.4438 189.1954 0132819 341.6338  18.0001 15.17936854241477
MERIDIAN 10             
1 52145U 22030A   26192.39491675  .00000163  00000+0  00000+0 0  9996
2 52145  62.6800 138.1786 6790651 272.8436  17.6127  2.00609904 31515
OMNI-L1                 
1 52157U 22033A   26192.80962694  .00001033  00000+0  13407-3 0  9998
2 52157  97.8392 271.5092 0005037 188.4691 171.6439 14.82837689231102
ENMAP                   
1 52159U 22033C   26192.92688964  .00000168  00000+0  32475-4 0  9993
2 52159  97.9791 274.8246 0001349  79.0528 281.0833 14.74939020230309
ARCSAT-1                
1 52161U 22033E   26192.72489658  .00010657  00000+0  16489-3 0  9993
2 52161  97.2758 285.3718 0006326 107.0335 253.1612 15.54227415239511
GLOBAL-18               
1 52196U 22034B   26191.25869793  .00015344  00000+0  30602-3 0  9992
2 52196  52.9800 146.3065 0004308  11.3992 348.7110 15.47079635240539
GAOFEN-3 03             
1 52200U 22035A   26192.99760931 -.00000163  00000+0 -36407-4 0  9990
2 52200  98.4069 201.2176 0001730  91.6323 268.5065 14.42217438224423
DAQI-1                  
1 52257U 22039A   26192.99400566  .00000088  00000+0  29055-4 0  9996
2 52257  98.1477 131.3335 0003727 155.9631 204.1743 14.57691459225558
BRO-6                   
1 52422U 22047AE  26192.90539172  .00028144  00000+0  46211-3 0  9991
2 52422  97.3395 284.4653 0002956 329.8377  30.2705 15.52379248234985
JILIN-1 GAOFEN 3D27     
1 52444U 22048B   26192.94107487  .00126250  00000+0  60967-3 0  9991
2 52444  97.5730 309.2487 0005010 252.7834 107.2886 15.82206266233381
JILIN-1 GAOFEN 3D28     
1 52445U 22048C   26192.94470457  .00169068  00000+0  64895-3 0  9990
2 52445  97.5669 309.5313 0004780 248.9727 111.1033 15.86942993233448
VIGORIDE-3              
1 52760U 22057AE  26192.84932336  .00003250  00000+0  12353-3 0  9990
2 52760  97.6629 333.4851 0009137  45.3451 314.8531 15.27528680228922
ION SCV-006             
1 52761U 22057AF  26192.37886823  .00007857  00000+0  16296-3 0  9995
2 52761  97.6117 342.1745 0017151  30.9880 329.2377 15.45862424229853
SHERPA-AC1              
1 52763U 22057AH  26192.88056737  .00004536  00000+0  12931-3 0  9999
2 52763  97.6707 343.1458 0007516  15.4262 344.7209 15.36602059229490
OMNI-L2                 
1 52771U 22057AR  26192.64145809  .00000699  00000+0  95317-4 0  9997
2 52771  97.4704 253.3558 0005401 234.4102 125.6609 14.81432788224016
STEP CUBE LAB-II        
1 52897U 22065D   26192.88884854  .00000507  00000+0  10745-3 0  9990
2 52897  98.2252 336.7191 0007577 314.6815  45.3769 14.63340514215110
RANDEV                  
1 52898U 22065E   26192.88338453  .00000528  00000+0  11062-3 0  9996
2 52898  98.2240 337.0762 0006936 315.3985  44.6658 14.63729240214867
SNUGLITE-II             
1 52899U 22065F   26192.62962967  .00000478  00000+0  99611-4 0  9993
2 52899  98.2230 337.4211 0006399 313.7213  46.3459 14.64390506214575
MIMAN                   
1 52900U 22065G   26192.62067688  .00000270  00000+0  63494-4 0  9992
2 52900  98.2291 334.9841 0006590 316.6291  43.4391 14.61869477214014
STARLINK-4362           
1 53043U 22077A   26192.45646444  .00000673  00000+0  50517-4 0  9997
2 53043  97.2839  10.1137 0001244  94.0074 266.1296 15.05658795219536
LARES-2                 
1 53105U 22080A   26192.27283510 -.00000016  00000+0  00000+0 0  9990
2 53105  70.1562 297.0691 0005170 331.4390  28.5953  6.38965058 93203
GREENCUBE (IO-117)      
1 53109U 22080E   26192.30794326 -.00000003  00000+0  00000+0 0  9996
2 53109  70.1420 289.8580 0009046 284.3679  75.5976  6.42583311 93613
STARLINK-4410           
1 53204U 22084R   26192.91670139  .00043202  00000+0  92691-3 0  9996
2 53204  97.5999 254.8486 0001716  77.5670 113.3601 15.44599321  5809
COSMOS 2558             
1 53323U 22089A   26192.81593285  .00102043  00000+0  52388-3 0  9996
2 53323  97.2237 297.9839 0003714 233.2836 126.8092 15.80949922221717
TECMS                   
1 53346U 22090A   26192.95433492  .00002137  00000+0  98754-4 0  9992
2 53346  97.3132 260.3616 0005562  93.1438 267.0435 15.21220180218570
DONGPO 02               
1 53452U 22098J   26192.98232833  .00109055  00000+0  57258-3 0  9997
2 53452  97.5545 326.4330 0004389 223.7065 136.3855 15.80433173218700
DONGPO 01               
1 53453U 22098K   26192.94881742  .00082945  00000+0  49840-3 0  9999
2 53453  97.5606 326.8473 0002851 213.1089 146.9998 15.77506432218656
STARLINK-4400           
1 53468U 22099D   26192.83445292 -.00000058  00000+0 -98110-7 0  9995
2 53468  97.2837 310.5521 0001706 128.1489 231.9892 15.05654599214659
